IRIDIUM 154             
1 43574U 18061F   26166.41761708  .00000215  00000+0  69665-4 0  9997
2 43574  86.3965  57.5469 0002109  87.6807 272.4631 14.34219832413152
IRIDIUM 163             
1 43575U 18061G   26166.39858902  .00000077  00000+0  20261-4 0  9993
2 43575  86.3960  57.4701 0002260  83.5774 276.5679 14.34216511413127
IRIDIUM 156             
1 43576U 18061H   26166.44299077  .00000151  00000+0  46904-4 0  9997
2 43576  86.3961  57.4589 0002051  81.4419 278.7009 14.34217964413128
IRIDIUM 164             
1 43577U 18061J   26166.42396310  .00000111  00000+0  32506-4 0  9993
2 43577  86.3963  57.5071 0002102  88.8808 271.2629 14.34218275413164
IRIDIUM 159             
1 43578U 18061K   26166.39225104  .00000098  00000+0  27916-4 0  9995
2 43578  86.3960  57.4570 0002268  83.8652 276.2803 14.34217798413124
IRIDIUM 180             
1 43922U 19002A   26166.60105150  .00000204  00000+0  65861-4 0  9996
2 43922  86.3971 354.2608 0002248  88.9374 271.2079 14.34218680388766
IRIDIUM 176             
1 43923U 19002B   26166.59569126  .00000664  00000+0  10131-3 0  9991
2 43923  86.6090 354.2067 0002265  92.2345 267.9132 14.72265245399019
IRIDIUM 168             
1 43924U 19002C   26166.59470902  .00000046  00000+0  95298-5 0  9998
2 43924  86.3974 354.3408 0002162  88.8867 271.2576 14.34218178388743
IRIDIUM 173             
1 43925U 19002D   26166.58202374  .00000122  00000+0  36504-4 0  9993
2 43925  86.3969 354.2349 0002197  86.9999 273.1448 14.34218399388726
IRIDIUM 169             
1 43926U 19002E   26166.58290596  .00000241  00000+0  72363-4 0  9992
2 43926  86.4225  25.8642 0001907  72.0457 288.0949 14.38608325389990
IRIDIUM 172             
1 43927U 19002F   26166.57568119  .00000137  00000+0  41831-4 0  9991
2 43927  86.3969 354.2455 0002250  88.8194 271.3260 14.34217972388733
IRIDIUM 175             
1 43928U 19002G   26166.40434101  .00000267  00000+0  72765-4 0  9991
2 43928  86.4511 291.2663 0002264 184.8804 175.2376 14.43611799398724
IRIDIUM 171             
1 43929U 19002H   26166.55665373  .00000309  00000+0  10334-3 0  9995
2 43929  86.3978 354.5593 0002016  89.4892 270.6534 14.34218096388726
IRIDIUM 170             
1 43930U 19002J   26166.60187237  .00000657  00000+0  10031-3 0  9991
2 43930  86.6091 354.2066 0002351  88.8788 271.2699 14.72265685399020
IRIDIUM 167             
1 43931U 19002K   26166.55031084  .00000008  00000+0 -40914-5 0  9990
2 43931  86.3967 354.2784 0001752  90.2189 269.9207 14.34217603388722
IRIDIUM 181             
1 56726U 23068S   26166.23456127  .00000266  00000+0  72926-4 0  9999
2 56726  86.4501  57.6067 0002332  88.4239 271.7229 14.43311436162152
IRIDIUM 177             
1 56727U 23068T   26166.49733260  .00000928  00000+0  11858-3 0  9995
2 56727  86.1960 329.5941 0002373  87.0914 273.0579 14.80227531166117
IRIDIUM 174             
1 56728U 23068U   26166.58953180  .00000681  00000+0  10400-3 0  9999
2 56728  86.6098 354.3591 0002480  84.1931 275.9569 14.72261999165787
IRIDIUM 178             
1 56729U 23068V   26166.62166943  .00000837  00000+0  10668-3 0  9997
2 56729  86.6538  26.0145 0002642  86.2602 273.8922 14.80231364166135
IRIDIUM 179             
1 56730U 23068W   26166.61626977  .00000727  00000+0  92250-4 0  9992
2 56730  86.6779  34.9921 0002430  88.7338 271.4162 14.80234669166133
