OBJECT_NAME,OBJECT_ID,EPOCH,MEAN_MOTION,ECCENTRICITY,INCLINATION,RA_OF_ASC_NODE,ARG_OF_PERICENTER,MEAN_ANOMALY,EPHEMERIS_TYPE,CLASSIFICATION_TYPE,NORAD_CAT_ID,ELEMENT_SET_NO,REV_AT_EPOCH,BSTAR,MEAN_MOTION_DOT,MEAN_MOTION_DDOT
IRIDIUM 154,2018-061F,2026-06-15T10:01:22.115712,14.34219832,.0002109,86.3965,57.5469,87.6807,272.4631,0,U,43574,999,41315,.69664739E-4,.215E-5,0
IRIDIUM 163,2018-061G,2026-06-15T09:33:58.091328,14.34216511,.00022608,86.3960,57.4701,83.5774,276.5679,0,U,43575,999,41312,.20261367E-4,.77E-6,0
IRIDIUM 156,2018-061H,2026-06-15T10:37:54.402528,14.34217964,.00020516,86.3961,57.4589,81.4419,278.7009,0,U,43576,999,41312,.46903705E-4,.151E-5,0
IRIDIUM 164,2018-061J,2026-06-15T10:10:30.411840,14.34218275,.00021023,86.3963,57.5071,88.8808,271.2629,0,U,43577,999,41316,.32506245E-4,.111E-5,0
IRIDIUM 159,2018-061K,2026-06-15T09:24:50.489856,14.34217798,.00022688,86.3960,57.4570,83.8652,276.2803,0,U,43578,999,41312,.27915551E-4,.98E-6,0
IRIDIUM 180,2019-002A,2026-06-15T14:25:30.849600,14.34218680,.00022487,86.3971,354.2608,88.9374,271.2079,0,U,43922,999,38876,.65861135E-4,.204E-5,0
IRIDIUM 176,2019-002B,2026-06-15T14:17:47.724864,14.72265245,.00022656,86.6090,354.2067,92.2345,267.9132,0,U,43923,999,39901,.10130716E-3,.664E-5,0
IRIDIUM 168,2019-002C,2026-06-15T14:16:22.859328,14.34218178,.0002162,86.3974,354.3408,88.8867,271.2576,0,U,43924,999,38874,.9529828E-5,.46E-6,0
IRIDIUM 173,2019-002D,2026-06-15T13:58:06.851136,14.34218399,.00021979,86.3969,354.2349,86.9999,273.1448,0,U,43925,999,38872,.36503866E-4,.122E-5,0
IRIDIUM 169,2019-002E,2026-06-15T13:59:23.074944,14.38608325,.00019079,86.4225,25.8642,72.0457,288.0949,0,U,43926,999,38999,.72362712E-4,.241E-5,0
IRIDIUM 172,2019-002F,2026-06-15T13:48:58.854816,14.34217972,.000225,86.3969,354.2455,88.8194,271.3260,0,U,43927,999,38873,.41830518E-4,.137E-5,0
IRIDIUM 175,2019-002G,2026-06-15T09:42:15.063264,14.43611799,.00022641,86.4511,291.2663,184.8804,175.2376,0,U,43928,999,39872,.72764651E-4,.267E-5,0
IRIDIUM 171,2019-002H,2026-06-15T13:21:34.882272,14.34218096,.00020163,86.3978,354.5593,89.4892,270.6534,0,U,43929,999,38872,.10334101E-3,.309E-5,0
IRIDIUM 170,2019-002J,2026-06-15T14:26:41.772768,14.72265685,.00023514,86.6091,354.2066,88.8788,271.2699,0,U,43930,999,39902,.10031483E-3,.657E-5,0
IRIDIUM 167,2019-002K,2026-06-15T13:12:26.856576,14.34217603,.00017521,86.3967,354.2784,90.2189,269.9207,0,U,43931,999,38872,-.4091429E-5,.8E-7,0
IRIDIUM 181,2023-068S,2026-06-15T05:37:46.093728,14.43311436,.0002332,86.4501,57.6067,88.4239,271.7229,0,U,56726,999,16215,.72926E-4,.266E-5,0
IRIDIUM 177,2023-068T,2026-06-15T11:56:09.536640,14.80227531,.00023731,86.1960,329.5941,87.0914,273.0579,0,U,56727,999,16611,.11858056E-3,.928E-5,0
IRIDIUM 174,2023-068U,2026-06-15T14:08:55.547520,14.72261999,.00024805,86.6098,354.3591,84.1931,275.9569,0,U,56728,999,16578,.10400493E-3,.681E-5,0
IRIDIUM 178,2023-068V,2026-06-15T14:55:12.238752,14.80231364,.00026424,86.6538,26.0145,86.2602,273.8922,0,U,56729,999,16613,.10668072E-3,.837E-5,0
IRIDIUM 179,2023-068W,2026-06-15T14:47:25.708128,14.80234669,.00024301,86.6779,34.9921,88.7338,271.4162,0,U,56730,999,16613,.92249983E-4,.727E-5,0
